H1 CPF 01  gfz 2021 01 21 13  5212 terrasarx 
H2 0702601  6201 31698    2021 01 21 12 59 42 2021 01 26 00 00 42   120 1 1  0 0 0
H9
10 0 59235  63342.000000  0   -6844477.680   -779977.432     92233.309
10 0 59235  63462.000000  0   -6816401.196   -597828.414   -811133.257
10 0 59235  63582.000000  0   -6666003.757   -406798.253  -1700233.995
10 0 59235  63702.000000  0   -6395889.540   -212346.082  -2559451.066
10 0 59235  63822.000000  0   -6010859.900    -19922.166  -3373720.191
10 0 59235  63942.000000  0   -5517816.865    165166.680  -4128799.850
10 0 59235  64062.000000  0   -4925625.680    337885.973  -4811519.900
10 0 59235  64182.000000  0   -4244942.263    493594.220  -5410006.769
10 0 59235  64302.000000  0   -3488010.015    628152.417  -5913882.175
10 0 59235  64422.000000  0   -2668430.454    738019.183  -6314432.376
10 0 59235  64542.000000  0   -1800914.693    820331.070  -6604746.454
10 0 59235  64662.000000  0    -901018.694    872966.916  -6779825.213
10 0 59235  64782.000000  0      15132.756    894594.950  -6836656.790
10 0 59235  64902.000000  0     931127.327    884701.715  -6774262.307
10 0 59235  65022.000000  0    1830551.945    843602.726  -6593713.692
10 0 59235  65142.000000  0    2697281.445    772435.052  -6298117.421
10 0 59235  65262.000000  0    3515762.815    673131.815  -5892566.410
10 0 59235  65382.000000  0    4271290.983    548378.251  -5384060.406
10 0 59235  65502.000000  0    4950273.251    401550.228  -4781396.690
10 0 59235  65622.000000  0    5540479.233    236636.814  -4095029.390
10 0 59235  65742.000000  0    6031269.349     58147.017  -3336897.537
10 0 59235  65862.000000  0    6413797.073   -128996.922  -2520225.493
10 0 59235  65982.000000  0    6681181.898   -319577.943  -1659297.054
10 0 59235  66102.000000  0    6828645.740   -508211.361   -769205.211
10 0 59235  66222.000000  0    6853608.932   -689477.431    134415.609
10 0 59235  66342.000000  0    6755743.942   -858056.878   1035670.152
10 0 59235  66462.000000  0    6536983.651  -1008865.556   1918690.150
10 0 59235  66582.000000  0    6201484.776  -1137184.623   2767923.328
10 0 59235  66702.000000  0    5755543.912  -1238782.448   3568416.073
10 0 59235  66822.000000  0    5207472.858  -1310025.504   4306082.270
10 0 59235  66942.000000  0    4567434.539  -1347976.332   4967954.931
10 0 59235  67062.000000  0    3847244.424  -1350474.094   5542414.225
10 0 59235  67182.000000  0    3060143.206  -1316197.221   6019389.502
10 0 59235  67302.000000  0    2220544.940  -1244707.696   6390530.878
10 0 59235  67422.000000  0    1343767.977  -1136475.636   6649349.677
10 0 59235  67542.000000  0     445751.305   -992883.589   6791326.588
10 0 59235  67662.000000  0    -457237.057   -816209.915   6813984.713
10 0 59235  67782.000000  0   -1348893.903   -609592.716   6716928.819
10 0 59235  67902.000000  0   -2213173.576   -376974.266   6501851.567
10 0 59235  68022.000000  0   -3034575.196   -123026.589   6172506.244
10 0 59235  68142.000000  0   -3798421.283    146940.520   5734646.628
10 0 59235  68262.000000  0   -4491123.727    427087.483   5195932.749
10 0 59235  68382.000000  0   -5100431.393    711167.179   4565802.809
10 0 59235  68502.000000  0   -5615655.128    992659.371   3855312.884
10 0 59235  68622.000000  0   -6027863.871   1264914.715   3076945.752
10 0 59235  68742.000000  0   -6330048.924   1521305.198   2244392.933
10 0 59235  68862.000000  0   -6517252.255   1755377.091   1372311.993
10 0 59235  68982.000000  0   -6586655.624   1961003.463    476063.476
10 0 59235  69102.000000  0   -6537625.987   2132531.947   -428568.052
10 0 59235  69222.000000  0   -6371716.176   2264923.070  -1325660.985
10 0 59235  69342.000000  0   -6092621.916   2353876.549  -2199445.233
10 0 59235  69462.000000  0   -5706096.371   2395942.760  -3034587.591
10 0 59235  69582.000000  0   -5219822.639   2388615.520  -3816466.566
10 0 59235  69702.000000  0   -4643250.009   2330403.737  -4531429.480
10 0 59235  69822.000000  0   -3987399.116   2220881.411  -5167027.847
10 0 59235  69942.000000  0   -3264641.298   2060715.434  -5712226.719
10 0 59235  70062.000000  0   -2488458.927   1851671.060  -6157586.459
10 0 59235  70182.000000  0   -1673189.708   1596594.913  -6495416.273
10 0 59235  70302.000000  0    -833760.149   1299375.832  -6719894.638
10 0 59235  70422.000000  0      14584.249    964884.995  -6827158.824
10 0 59235  70542.000000  0     856549.197    598897.074  -6815363.608
10 0 59235  70662.000000  0    1677060.828    207992.698  -6684711.925
10 0 59235  70782.000000  0    2461530.413   -200557.408  -6437451.105
10 0 59235  70902.000000  0    3196108.229   -618923.612  -6077838.646
10 0 59235  71022.000000  0    3867925.636  -1038862.970  -5612075.820
10 0 59235  71142.000000  0    4465319.695  -1451876.535  -5048211.332
10 0 59235  71262.000000  0    4978040.269  -1849377.984  -4396014.334
10 0 59235  71382.000000  0    5397432.985  -2222869.143  -3666815.723
10 0 59235  71502.000000  0    5716595.020  -2564118.839  -2873320.248
10 0 59235  71622.000000  0    5930499.677  -2865341.631  -2029390.529
10 0 59235  71742.000000  0    6036085.326  -3119371.941  -1149806.580
10 0 59235  71862.000000  0    6032307.049  -3319829.357   -250005.705
10 0 59235  71982.000000  0    5920148.371  -3461271.122    654193.735
10 0 59235  72102.000000  0    5702593.040  -3539327.652   1546876.789
10 0 59235  72222.000000  0    5384555.433  -3550816.818   2412322.514
10 0 59235  72342.000000  0    4972770.212  -3493833.212   3235289.784
10 0 59235  72462.000000  0    4475647.536  -3367811.107   4001292.273
10 0 59235  72582.000000  0    3903097.063  -3173559.322   4696857.547
10 0 59235  72702.000000  0    3266323.833  -2913268.862   5309767.107
10 0 59235  72822.000000  0    2577601.052  -2590490.566   5829269.591
10 0 59235  72942.000000  0    1850027.660  -2210085.329   6246265.434
10 0 59235  73062.000000  0    1097274.445  -1778148.733   6553460.659
10 0 59235  73182.000000  0     333324.210  -1301910.923   6745488.349
10 0 59235  73302.000000  0    -427788.907   -789613.538   6818996.496
10 0 59235  73422.000000  0   -1172236.509   -250366.200   6772702.053
10 0 59235  73542.000000  0   -1886645.891    306015.113   6607411.816
10 0 59235  73662.000000  0   -2558339.275    869186.162   6326009.392
10 0 59235  73782.000000  0   -3175558.931   1428465.720   5933408.357
10 0 59235  73902.000000  0   -3727674.851   1973037.196   5436472.299
10 0 59235  74022.000000  0   -4205372.349   2492158.017   4843901.743
10 0 59235  74142.000000  0   -4600815.416   2975373.327   4166087.548
10 0 59235  74262.000000  0   -4907781.889   3412727.905   3414932.044
10 0 59235  74382.000000  0   -5121767.212   3794973.343   2603642.197
10 0 59235  74502.000000  0   -5240055.183   4113765.870   1746497.195
10 0 59235  74622.000000  0   -5261753.766   4361849.761    858593.069
10 0 59235  74742.000000  0   -5187792.687   4533220.302    -44430.635
10 0 59235  74862.000000  0   -5020884.434   4623262.227   -946673.936
10 0 59235  74982.000000  0   -4765449.561   4628861.888  -1832266.058
10 0 59235  75102.000000  0   -4427506.177   4548488.075  -2685654.115
10 0 59235  75222.000000  0   -4014528.292   4382238.964  -3491882.853
10 0 59235  75342.000000  0   -3535276.591   4131855.915  -4236859.463
10 0 59235  75462.000000  0   -2999607.440   3800704.523  -4907597.821
10 0 59235  75582.000000  0   -2418266.178   3393724.388  -5492438.314
10 0 59235  75702.000000  0   -1802669.489   2917350.351  -5981242.659
10 0 59235  75822.000000  0   -1164679.293   2379404.749  -6365560.180
10 0 59235  75942.000000  0    -516374.577   1788964.171  -6638761.981
10 0 59235  76062.000000  0     130174.190   1156205.010  -6796144.115
10 0 59235  76182.000000  0     763124.274    492229.263  -6834999.942
10 0 59235  76302.000000  0    1371072.979   -191126.503  -6754663.005
10 0 59235  76422.000000  0    1943258.699   -881498.124  -6556515.934
10 0 59235  76542.000000  0    2469746.549  -1566211.594  -6243968.840
10 0 59235  76662.000000  0    2941598.598  -2232509.891  -5822406.970
10 0 59235  76782.000000  0    3351025.456  -2867785.926  -5299108.873
10 0 59235  76902.000000  0    3691518.592  -3459821.282  -4683132.169
10 0 59235  77022.000000  0    3957957.085  -3997021.913  -3985165.615
10 0 59235  77142.000000  0    4146688.582  -4468646.940  -3217354.027
10 0 59235  77262.000000  0    4255584.213  -4865028.166  -2393095.216
10 0 59235  77382.000000  0    4284064.415  -5177774.587  -1526810.165
10 0 59235  77502.000000  0    4233092.558  -5399955.849   -633690.086
10 0 59235  77622.000000  0    4105137.818  -5526258.766    270574.098
10 0 59235  77742.000000  0    3904106.727  -5553113.558   1170074.014
10 0 59235  77862.000000  0    3635245.784  -5478785.744   2048972.846
10 0 59235  77982.000000  0    3305015.651  -5303429.595   2891793.511
10 0 59235  78102.000000  0    2920941.554  -5029104.523   3683698.204
10 0 59235  78222.000000  0    2491444.411  -4659752.394   4410755.377
10 0 59235  78342.000000  0    2025656.811  -4201137.215   5060188.011
10 0 59235  78462.000000  0    1533228.015  -3660748.734   5620598.276
10 0 59235  78582.000000  0    1024122.690  -3047672.463   6082165.654
10 0 59235  78702.000000  0     508417.579  -2372429.475   6436813.382
10 0 59235  78822.000000  0      -3898.289  -1646790.745   6678342.669
10 0 59235  78942.000000  0    -503116.034   -883569.535   6802534.899
10 0 59235  79062.000000  0    -979989.623    -96393.455   6807221.766
10 0 59235  79182.000000  0   -1425906.251    700539.192   6692320.496
10 0 59235  79302.000000  0   -1833041.365   1492714.851   6459834.924
10 0 59235  79422.000000  0   -2194496.108   2265567.971   6113822.795
10 0 59235  79542.000000  0   -2504415.068   3004748.636   5660329.417
10 0 59235  79662.000000  0   -2758082.353   3696390.378   5107288.176
10 0 59235  79782.000000  0   -2951995.704   4327373.943   4464388.740
99
